{
 "type": "FeatureCollection",
 "features": [
  {
   "type": "Feature",
   "properties": {
    "name": "공터(RTK)",
    "height_m": 0.0
   },
   "geometry": {
    "type": "Polygon",
    "coordinates": [
     [
      [
       126.6538218,
       37.3850895
      ],
      [
       126.6546408,
       37.384577
      ],
      [
       126.6542797,
       37.3841819
      ],
      [
       126.65343,
       37.384699
      ],
      [
       126.6538218,
       37.3850895
      ]
     ]
    ]
   }
  },
  {
   "type": "Feature",
   "properties": {
    "name": "이노베이션센터",
    "height_m": 20.0
   },
   "geometry": {
    "type": "Polygon",
    "coordinates": [
     [
      [
       126.6538497714729,
       37.383946854655626
      ],
      [
       126.65332233785215,
       37.38426644868286
      ],
      [
       126.65349076471729,
       37.38444290494922
      ],
      [
       126.65401819363765,
       37.38412531326327
      ],
      [
       126.6538497714729,
       37.383946854655626
      ]
     ]
    ]
   }
  },
  {
   "type": "Feature",
   "properties": {
    "name": "L자 캐노피",
    "height_m": 10.0
   },
   "geometry": {
    "type": "Polygon",
    "coordinates": [
     [
      [
       126.65380621218637,
       37.384253149380235
      ],
      [
       126.65384391829039,
       37.38429325222831
      ],
      [
       126.65410637509704,
       37.38413345334728
      ],
      [
       126.65395805658724,
       37.383979052713656
      ],
      [
       126.65390758593227,
       37.384009013136435
      ],
      [
       126.65401819363765,
       37.38412531326327
      ],
      [
       126.65380621218637,
       37.384253149380235
      ]
     ]
    ]
   }
  },
  {
   "type": "Feature",
   "properties": {
    "name": "heightmap 범위",
    "height_m": null
   },
   "geometry": {
    "type": "Polygon",
    "coordinates": [
     [
      [
       126.65331525786765,
       37.38513545733097
      ],
      [
       126.65478190220685,
       37.385137630999026
      ],
      [
       126.65478473184208,
       37.383932221545365
      ],
      [
       126.65331808750288,
       37.3839300478773
      ],
      [
       126.65331525786765,
       37.38513545733097
      ]
     ]
    ]
   }
  }
 ]
}